STARLINK-1452
1 25669C 20035N   21325.16144683  .00005939  00000-0  39793-3 0  3259
2 25669  53.0540 272.5071 0001744  71.6879   5.5975 15.06389276    16
